[{"OBJECT_NAME":"KAZEOSAT 1","OBJECT_ID":"2014-024A","EPOCH":"2026-03-09T22:32:10.650624","MEAN_MOTION":14.4203561,"ECCENTRICITY":0.0001038,"INCLINATION":98.3278,"RA_OF_ASC_NODE":143.8269,"ARG_OF_PERICENTER":83.2576,"MEAN_ANOMALY":276.8732,"EPHEMERIS_TYPE":0,"CLASSIFICATION_TYPE":"U","NORAD_CAT_ID":39731,"ELEMENT_SET_NO":999,"REV_AT_EPOCH":62425,"BSTAR":8.1032563e-5,"MEAN_MOTION_DOT":2.23e-6,"MEAN_MOTION_DDOT":0},{"OBJECT_NAME":"FENGYUN 1C DEB","OBJECT_ID":"1999-025AZP","EPOCH":"2026-03-08T20:41:07.900800","MEAN_MOTION":14.44877225,"ECCENTRICITY":0.00289397,"INCLINATION":98.8846,"RA_OF_ASC_NODE":208.4131,"ARG_OF_PERICENTER":339.1625,"MEAN_ANOMALY":173.2873,"EPHEMERIS_TYPE":0,"CLASSIFICATION_TYPE":"U","NORAD_CAT_ID":30925,"ELEMENT_SET_NO":999,"REV_AT_EPOCH":98315,"BSTAR":0.0030153806,"MEAN_MOTION_DOT":0.00010516,"MEAN_MOTION_DDOT":0}]
